STARLINK-36745          
1 68257U 26054AB  26089.16668981 -.01902547  00000+0 -12404-1 0  9996
2 68257  53.1592 209.8274 0000893  80.2102 339.4656 15.78357775  3206
STARLINK-36890          
1 68258U 26054AC  26089.16668981  .00081393  00000+0  41287-3 0  9994
2 68258  53.1590 209.8137 0001181 126.3906 300.2828 15.80828912  3204
STARLINK-36323          
1 68259U 26054AD  26089.16668981  .00070819  00000+0  35999-3 0  9999
2 68259  53.1591 209.8311 0000977  83.4063 334.7153 15.80837513  3243
STARLINK-37056          
1 68260U 26054AE  26089.16668981  .00084582  00000+0  42889-3 0  9999
2 68260  53.1589 209.8045 0000826  99.2477 331.6985 15.80822004  3207
TEN-KOH 2               
1 68261U 25241B   26089.09725823  .00012314  00000+0  53304-3 0  9996
2 68261  51.6392 335.8383 0004469 230.2647 129.7936 15.22777424  2854
STARLINK-37162          
1 68262U 26055A   26089.16668981 -.01162006  40292-3 -33720-2 0  9997
2 68262  53.1582 234.8751 0000892  66.4070  70.1584 15.92283181  2920
STARLINK-37156          
1 68263U 26055B   26089.16668981 -.01154035  39825-3 -33335-2 0  9993
2 68263  53.1580 234.8695 0000856  70.4807  69.0008 15.92369822  2924
STARLINK-37163          
1 68264U 26055C   26089.16668981 -.01163152  40468-3 -33293-2 0  9992
2 68264  53.1580 234.8538 0000913  70.2387  76.4388 15.92546440  2922
STARLINK-37133          
1 68265U 26055D   26089.16668981 -.01158403  40133-3 -33312-2 0  9997
2 68265  53.1580 234.8616 0000974  71.2343  71.9213 15.92456162  2928
STARLINK-37042          
1 68266U 26055E   26089.16668981 -.01173314  41147-3 -33440-2 0  9994
2 68266  53.1579 234.8451 0001019  63.1149  87.9986 15.92630194  2922
STARLINK-37103          
1 68267U 26055F   26089.16668981 -.01179421  41574-3 -33457-2 0  9992
2 68267  53.1581 234.8368 0000865  69.6195  85.3839 15.92720848  2928
STARLINK-36999          
1 68268U 26055G   26089.16668981 -.01181951  41773-3 -33369-2 0  9997
2 68268  53.1580 234.8295 0000960  70.1945  88.3752 15.92812611  2920
