CCSDS_OMM_VERS = 2.0
CREATION_DATE  = 
ORIGINATOR     = 

OBJECT_NAME    = STARLINK-36745
OBJECT_ID      = 2026-054AB
CENTER_NAME    = EARTH
REF_FRAME      = TEME
TIME_SYSTEM    = UTC
MEAN_ELEMENT_THEORY = SGP/SGP4

EPOCH          = 2026-03-30T04:00:01.999584
MEAN_MOTION    = 15.78357775
ECCENTRICITY   = .0000893
INCLINATION    = 53.1592
RA_OF_ASC_NODE = 209.8274
ARG_OF_PERICENTER = 80.2102
MEAN_ANOMALY   = 339.4656

EPHEMERIS_TYPE = 0
CLASSIFICATION_TYPE = U
NORAD_CAT_ID   = 68257
ELEMENT_SET_NO = 999
REV_AT_EPOCH   = 320
BSTAR          = -.12404E-1
MEAN_MOTION_DOT = -.1902547E-1
MEAN_MOTION_DDOT = 0

CCSDS_OMM_VERS = 2.0
CREATION_DATE  = 
ORIGINATOR     = 

OBJECT_NAME    = STARLINK-36890
OBJECT_ID      = 2026-054AC
CENTER_NAME    = EARTH
REF_FRAME      = TEME
TIME_SYSTEM    = UTC
MEAN_ELEMENT_THEORY = SGP/SGP4

EPOCH          = 2026-03-30T04:00:01.999584
MEAN_MOTION    = 15.80828912
ECCENTRICITY   = .0001181
INCLINATION    = 53.1590
RA_OF_ASC_NODE = 209.8137
ARG_OF_PERICENTER = 126.3906
MEAN_ANOMALY   = 300.2828

EPHEMERIS_TYPE = 0
CLASSIFICATION_TYPE = U
NORAD_CAT_ID   = 68258
ELEMENT_SET_NO = 999
REV_AT_EPOCH   = 320
BSTAR          = .41287E-3
MEAN_MOTION_DOT = .81393E-3
MEAN_MOTION_DDOT = 0

CCSDS_OMM_VERS = 2.0
CREATION_DATE  = 
ORIGINATOR     = 

OBJECT_NAME    = STARLINK-36323
OBJECT_ID      = 2026-054AD
CENTER_NAME    = EARTH
REF_FRAME      = TEME
TIME_SYSTEM    = UTC
MEAN_ELEMENT_THEORY = SGP/SGP4

EPOCH          = 2026-03-30T04:00:01.999584
MEAN_MOTION    = 15.80837513
ECCENTRICITY   = .0000977
INCLINATION    = 53.1591
RA_OF_ASC_NODE = 209.8311
ARG_OF_PERICENTER = 83.4063
MEAN_ANOMALY   = 334.7153

EPHEMERIS_TYPE = 0
CLASSIFICATION_TYPE = U
NORAD_CAT_ID   = 68259
ELEMENT_SET_NO = 999
REV_AT_EPOCH   = 324
BSTAR          = .35999E-3
MEAN_MOTION_DOT = .70819E-3
MEAN_MOTION_DDOT = 0

CCSDS_OMM_VERS = 2.0
CREATION_DATE  = 
ORIGINATOR     = 

OBJECT_NAME    = STARLINK-37056
OBJECT_ID      = 2026-054AE
CENTER_NAME    = EARTH
REF_FRAME      = TEME
TIME_SYSTEM    = UTC
MEAN_ELEMENT_THEORY = SGP/SGP4

EPOCH          = 2026-03-30T04:00:01.999584
MEAN_MOTION    = 15.80822004
ECCENTRICITY   = .0000826
INCLINATION    = 53.1589
RA_OF_ASC_NODE = 209.8045
ARG_OF_PERICENTER = 99.2477
MEAN_ANOMALY   = 331.6985

EPHEMERIS_TYPE = 0
CLASSIFICATION_TYPE = U
NORAD_CAT_ID   = 68260
ELEMENT_SET_NO = 999
REV_AT_EPOCH   = 320
BSTAR          = .42889E-3
MEAN_MOTION_DOT = .84582E-3
MEAN_MOTION_DDOT = 0

CCSDS_OMM_VERS = 2.0
CREATION_DATE  = 
ORIGINATOR     = 

OBJECT_NAME    = TEN-KOH 2
OBJECT_ID      = 2025-241B
CENTER_NAME    = EARTH
REF_FRAME      = TEME
TIME_SYSTEM    = UTC
MEAN_ELEMENT_THEORY = SGP/SGP4

EPOCH          = 2026-03-30T02:20:03.111072
MEAN_MOTION    = 15.22777424
ECCENTRICITY   = .0004469
INCLINATION    = 51.6392
RA_OF_ASC_NODE = 335.8383
ARG_OF_PERICENTER = 230.2647
MEAN_ANOMALY   = 129.7936

EPHEMERIS_TYPE = 0
CLASSIFICATION_TYPE = U
NORAD_CAT_ID   = 68261
ELEMENT_SET_NO = 999
REV_AT_EPOCH   = 285
BSTAR          = .53304E-3
MEAN_MOTION_DOT = .12314E-3
MEAN_MOTION_DDOT = 0

CCSDS_OMM_VERS = 2.0
CREATION_DATE  = 
ORIGINATOR     = 

OBJECT_NAME    = STARLINK-37162
OBJECT_ID      = 2026-055A
CENTER_NAME    = EARTH
REF_FRAME      = TEME
TIME_SYSTEM    = UTC
MEAN_ELEMENT_THEORY = SGP/SGP4

EPOCH          = 2026-03-30T04:00:01.999584
MEAN_MOTION    = 15.92283181
ECCENTRICITY   = .0000892
INCLINATION    = 53.1582
RA_OF_ASC_NODE = 234.8751
ARG_OF_PERICENTER = 66.4070
MEAN_ANOMALY   = 70.1584

EPHEMERIS_TYPE = 0
CLASSIFICATION_TYPE = U
NORAD_CAT_ID   = 68262
ELEMENT_SET_NO = 999
REV_AT_EPOCH   = 292
BSTAR          = -.3372E-2
MEAN_MOTION_DOT = -.1162006E-1
MEAN_MOTION_DDOT = .40292E-3

CCSDS_OMM_VERS = 2.0
CREATION_DATE  = 
ORIGINATOR     = 

OBJECT_NAME    = STARLINK-37156
OBJECT_ID      = 2026-055B
CENTER_NAME    = EARTH
REF_FRAME      = TEME
TIME_SYSTEM    = UTC
MEAN_ELEMENT_THEORY = SGP/SGP4

EPOCH          = 2026-03-30T04:00:01.999584
MEAN_MOTION    = 15.92369822
ECCENTRICITY   = .0000856
INCLINATION    = 53.1580
RA_OF_ASC_NODE = 234.8695
ARG_OF_PERICENTER = 70.4807
MEAN_ANOMALY   = 69.0008

EPHEMERIS_TYPE = 0
CLASSIFICATION_TYPE = U
NORAD_CAT_ID   = 68263
ELEMENT_SET_NO = 999
REV_AT_EPOCH   = 292
BSTAR          = -.33335E-2
MEAN_MOTION_DOT = -.1154035E-1
MEAN_MOTION_DDOT = .39825E-3

CCSDS_OMM_VERS = 2.0
CREATION_DATE  = 
ORIGINATOR     = 

OBJECT_NAME    = STARLINK-37163
OBJECT_ID      = 2026-055C
CENTER_NAME    = EARTH
REF_FRAME      = TEME
TIME_SYSTEM    = UTC
MEAN_ELEMENT_THEORY = SGP/SGP4

EPOCH          = 2026-03-30T04:00:01.999584
MEAN_MOTION    = 15.92546440
ECCENTRICITY   = .0000913
INCLINATION    = 53.1580
RA_OF_ASC_NODE = 234.8538
ARG_OF_PERICENTER = 70.2387
MEAN_ANOMALY   = 76.4388

EPHEMERIS_TYPE = 0
CLASSIFICATION_TYPE = U
NORAD_CAT_ID   = 68264
ELEMENT_SET_NO = 999
REV_AT_EPOCH   = 292
BSTAR          = -.33293E-2
MEAN_MOTION_DOT = -.1163152E-1
MEAN_MOTION_DDOT = .40468E-3

CCSDS_OMM_VERS = 2.0
CREATION_DATE  = 
ORIGINATOR     = 

OBJECT_NAME    = STARLINK-37133
OBJECT_ID      = 2026-055D
CENTER_NAME    = EARTH
REF_FRAME      = TEME
TIME_SYSTEM    = UTC
MEAN_ELEMENT_THEORY = SGP/SGP4

EPOCH          = 2026-03-30T04:00:01.999584
MEAN_MOTION    = 15.92456162
ECCENTRICITY   = .0000974
INCLINATION    = 53.1580
RA_OF_ASC_NODE = 234.8616
ARG_OF_PERICENTER = 71.2343
MEAN_ANOMALY   = 71.9213

EPHEMERIS_TYPE = 0
CLASSIFICATION_TYPE = U
NORAD_CAT_ID   = 68265
ELEMENT_SET_NO = 999
REV_AT_EPOCH   = 292
BSTAR          = -.33312E-2
MEAN_MOTION_DOT = -.1158403E-1
MEAN_MOTION_DDOT = .40133E-3

CCSDS_OMM_VERS = 2.0
CREATION_DATE  = 
ORIGINATOR     = 

OBJECT_NAME    = STARLINK-37042
OBJECT_ID      = 2026-055E
CENTER_NAME    = EARTH
REF_FRAME      = TEME
TIME_SYSTEM    = UTC
MEAN_ELEMENT_THEORY = SGP/SGP4

EPOCH          = 2026-03-30T04:00:01.999584
MEAN_MOTION    = 15.92630194
ECCENTRICITY   = .0001019
INCLINATION    = 53.1579
RA_OF_ASC_NODE = 234.8451
ARG_OF_PERICENTER = 63.1149
MEAN_ANOMALY   = 87.9986

EPHEMERIS_TYPE = 0
CLASSIFICATION_TYPE = U
NORAD_CAT_ID   = 68266
ELEMENT_SET_NO = 999
REV_AT_EPOCH   = 292
BSTAR          = -.3344E-2
MEAN_MOTION_DOT = -.1173314E-1
MEAN_MOTION_DDOT = .41147E-3

CCSDS_OMM_VERS = 2.0
CREATION_DATE  = 
ORIGINATOR     = 

OBJECT_NAME    = STARLINK-37103
OBJECT_ID      = 2026-055F
CENTER_NAME    = EARTH
REF_FRAME      = TEME
TIME_SYSTEM    = UTC
MEAN_ELEMENT_THEORY = SGP/SGP4

EPOCH          = 2026-03-30T04:00:01.999584
MEAN_MOTION    = 15.92720848
ECCENTRICITY   = .0000865
INCLINATION    = 53.1581
RA_OF_ASC_NODE = 234.8368
ARG_OF_PERICENTER = 69.6195
MEAN_ANOMALY   = 85.3839

EPHEMERIS_TYPE = 0
CLASSIFICATION_TYPE = U
NORAD_CAT_ID   = 68267
ELEMENT_SET_NO = 999
REV_AT_EPOCH   = 292
BSTAR          = -.33457E-2
MEAN_MOTION_DOT = -.1179421E-1
MEAN_MOTION_DDOT = .41574E-3

CCSDS_OMM_VERS = 2.0
CREATION_DATE  = 
ORIGINATOR     = 

OBJECT_NAME    = STARLINK-36999
OBJECT_ID      = 2026-055G
CENTER_NAME    = EARTH
REF_FRAME      = TEME
TIME_SYSTEM    = UTC
MEAN_ELEMENT_THEORY = SGP/SGP4

EPOCH          = 2026-03-30T04:00:01.999584
MEAN_MOTION    = 15.92812611
ECCENTRICITY   = .000096
INCLINATION    = 53.1580
RA_OF_ASC_NODE = 234.8295
ARG_OF_PERICENTER = 70.1945
MEAN_ANOMALY   = 88.3752

EPHEMERIS_TYPE = 0
CLASSIFICATION_TYPE = U
NORAD_CAT_ID   = 68268
ELEMENT_SET_NO = 999
REV_AT_EPOCH   = 292
BSTAR          = -.33369E-2
MEAN_MOTION_DOT = -.1181951E-1
MEAN_MOTION_DDOT = .41773E-3

